{"type": "FeatureCollection", "features": [ {"type": "Feature", "properties": {"norad_id": 31025, "name": "FENGYUN 1C DEB", "group": "fengyun-1c-debris", "lat": 38.21323534677749, "lon": -39.06935301046735, "alt_km": 695.7243407458072, "timestamp": "2025-12-03T06:58:43.518000+00:00", "meta": {"OBJECT_NAME": "FENGYUN 1C DEB", "OBJECT_ID": "1999-025BDT", "EPOCH": "2025-12-02T05:26:43.790208", "MEAN_MOTION": 14.20491018, "ECCENTRICITY": 0.0173686, "INCLINATION": 98.58, "RA_OF_ASC_NODE": 326.7242, "ARG_OF_PERICENTER": 43.1431, "MEAN_ANOMALY": 318.3207, "EPHEMERIS_TYPE": 0, "CLASSIFICATION_TYPE": "U", "NORAD_CAT_ID": 31025, "ELEMENT_SET_NO": 999, "REV_AT_EPOCH": 64216, "BSTAR": 0.00080719, "MEAN_MOTION_DOT": 1.974e-05, "MEAN_MOTION_DDOT": 0}, "tle": {"line1": "1 31025U 99025BDT 25336.22689572  .00001974  00000+0  80719-3 0  9994", "line2": "2 31025  98.5800 326.7242 0173686  43.1431 318.3207 14.20491018642169"}}, "geometry": {"type": "Point", "coordinates": [-39.06935301046735, 38.21323534677749]}}, {"type": "Feature", "properties": {"norad_id": 31026, "name": "FENGYUN 1C DEB", "group": "fengyun-1c-debris", "lat": -44.56354499388458, "lon": 84.72415315992728, "alt_km": 864.5204190578334, "timestamp": "2025-12-03T06:58:43.518011+00:00", "meta": {"OBJECT_NAME": "FENGYUN 1C DEB", "OBJECT_ID": "1999-025BDU", "EPOCH": "2025-11-28T13:56:04.665984", "MEAN_MOTION": 13.83390775, "ECCENTRICITY": 0.01338178, "INCLINATION": 98.7776, "RA_OF_ASC_NODE": 269.0802, "ARG_OF_PERICENTER": 221.0198, "MEAN_ANOMALY": 318.7849, "EPHEMERIS_TYPE": 0, "CLASSIFICATION_TYPE": "U", "NORAD_CAT_ID": 31026, "ELEMENT_SET_NO": 999, "REV_AT_EPOCH": 67830, "BSTAR": 0.00019112953, "MEAN_MOTION_DOT": 1.84e-06, "MEAN_MOTION_DDOT": 0}, "tle": {"line1": "1 31026U 99025BDU 25332.58060956  .00000184  00000+0  19113-3 0  9991", "line2": "2 31026  98.7776 269.0802 0133817 221.0198 318.7849 13.83390775678301"}}, "geometry": {"type": "Point", "coordinates": [84.72415315992728, -44.56354499388458]}}, {"type": "Feature", "properties": {"norad_id": 31028, "name": "FENGYUN 1C DEB", "group": "fengyun-1c-debris", "lat": 41.81187882797558, "lon": -98.11949114236808, "alt_km": 909.9756535061861, "timestamp": "2025-12-03T06:58:43.518023+00:00", "meta": {"OBJECT_NAME": "FENGYUN 1C DEB", "OBJECT_ID": "1999-025BDW", "EPOCH": "2025-11-26T01:54:24.970752", "MEAN_MOTION": 13.89048666, "ECCENTRICITY": 0.01654825, "INCLINATION": 98.7043, "RA_OF_ASC_NODE": 263.016, "ARG_OF_PERICENTER": 340.0889, "MEAN_ANOMALY": 19.3862, "EPHEMERIS_TYPE": 0, "CLASSIFICATION_TYPE": "U", "NORAD_CAT_ID": 31028, "ELEMENT_SET_NO": 999, "REV_AT_EPOCH": 61772, "BSTAR": 0.00043609826, "MEAN_MOTION_DOT": 5.49e-06, "MEAN_MOTION_DDOT": 0}, "tle": {"line1": "1 31028U 99025BDW 25330.07945568  .00000549  00000+0  43610-3 0  9990", "line2": "2 31028  98.7043 263.0160 0165482 340.0889  19.3862 13.89048666617726"}}, "geometry": {"type": "Point", "coordinates": [-98.11949114236808, 41.81187882797558]}}, {"type": "Feature", "properties": {"norad_id": 31029, "name": "FENGYUN 1C DEB", "group": "fengyun-1c-debris", "lat": -44.47126875864054, "lon": 45.14940105230471, "alt_km": 819.5125622900223, "timestamp": "2025-12-03T06:58:43.518033+00:00", "meta": {"OBJECT_NAME": "FENGYUN 1C DEB", "OBJECT_ID": "1999-025BDX", "EPOCH": "2025-12-02T16:48:26.116992", "MEAN_MOTION": 14.34291458, "ECCENTRICITY": 0.0089993, "INCLINATION": 98.8585, "RA_OF_ASC_NODE": 233.3512, "ARG_OF_PERICENTER": 102.995, "MEAN_ANOMALY": 314.0336, "EPHEMERIS_TYPE": 0, "CLASSIFICATION_TYPE": "U", "NORAD_CAT_ID": 31029, "ELEMENT_SET_NO": 999, "REV_AT_EPOCH": 97652, "BSTAR": 0.00040113, "MEAN_MOTION_DOT": 1.133e-05, "MEAN_MOTION_DDOT": 0}, "tle": {"line1": "1 31029U 99025BDX 25336.70030228  .00001133  00000+0  40113-3 0  9990", "line2": "2 31029  98.8585 233.3512 0089993 102.9950 314.0336 14.34291458976523"}}, "geometry": {"type": "Point", "coordinates": [45.14940105230471, -44.47126875864054]}}, {"type": "Feature", "properties": {"norad_id": 31030, "name": "FENGYUN 1C DEB", "group": "fengyun-1c-debris", "lat": 46.86413756728516, "lon": 29.76417781046135, "alt_km": 799.6604073254666, "timestamp": "2025-12-03T06:58:43.518043+00:00", "meta": {"OBJECT_NAME": "FENGYUN 1C DEB", "OBJECT_ID": "1999-025BDY", "EPOCH": "2025-11-30T02:59:24.955296", "MEAN_MOTION": 14.23591651, "ECCENTRICITY": 0.00283621, "INCLINATION": 98.7682, "RA_OF_ASC_NODE": 36.0903, "ARG_OF_PERICENTER": 119.683, "MEAN_ANOMALY": 270.8549, "EPHEMERIS_TYPE": 0, "CLASSIFICATION_TYPE": "U", "NORAD_CAT_ID": 31030, "ELEMENT_SET_NO": 999, "REV_AT_EPOCH": 96525, "BSTAR": 0.0010789134, "MEAN_MOTION_DOT": 2.424e-05, "MEAN_MOTION_DDOT": 0}, "tle": {"line1": "1 31030U 99025BDY 25334.12459439  .00002424  00000+0  10789-2 0  9994", "line2": "2 31030  98.7682  36.0903 0028362 119.6830 270.8549 14.23591651965258"}}, "geometry": {"type": "Point", "coordinates": [29.76417781046135, 46.86413756728516]}}, {"type": "Feature", "properties": {"norad_id": 31031, "name": "FENGYUN 1C DEB", "group": "fengyun-1c-debris", "lat": 38.47473766986361, "lon": 81.4375835357507, "alt_km": 813.5401295241154, "timestamp": "2025-12-03T06:58:43.518054+00:00", "meta": {"OBJECT_NAME": "FENGYUN 1C DEB", "OBJECT_ID": "1999-025BDZ", "EPOCH": "2025-12-02T14:00:02.170080", "MEAN_MOTION": 14.20954298, "ECCENTRICITY": 0.0027396, "INCLINATION": 99.0707, "RA_OF_ASC_NODE": 253.4179, "ARG_OF_PERICENTER": 216.3895, "MEAN_ANOMALY": 268.0113, "EPHEMERIS_TYPE": 0, "CLASSIFICATION_TYPE": "U", "NORAD_CAT_ID": 31031, "ELEMENT_SET_NO": 999, "REV_AT_EPOCH": 96710, "BSTAR": 0.00054735505, "MEAN_MOTION_DOT": 1.143e-05, "MEAN_MOTION_DDOT": 0}, "tle": {"line1": "1 31031U 99025BDZ 25336.58335845  .00001143  00000+0  54736-3 0  9999", "line2": "2 31031  99.0707 253.4179 0027396 216.3895 268.0113 14.20954298967102"}}, "geometry": {"type": "Point", "coordinates": [81.4375835357507, 38.47473766986361]}}, {"type": "Feature", "properties": {"norad_id": 31032, "name": "FENGYUN 1C DEB", "group": "fengyun-1c-debris", "lat": 74.90444080128296, "lon": -52.072878823595374, "alt_km": 959.8590747519693, "timestamp": "2025-12-03T06:58:43.518064+00:00", "meta": {"OBJECT_NAME": "FENGYUN 1C DEB", "OBJECT_ID": "1999-025BEA", "EPOCH": "2025-12-01T23:54:42.533568", "MEAN_MOTION": 14.02131489, "ECCENTRICITY": 0.01386197, "INCLINATION": 99.4015, "RA_OF_ASC_NODE": 344.4881, "ARG_OF_PERICENTER": 225.3673, "MEAN_ANOMALY": 163.2841, "EPHEMERIS_TYPE": 0, "CLASSIFICATION_TYPE": "U", "NORAD_CAT_ID": 31032, "ELEMENT_SET_NO": 999, "REV_AT_EPOCH": 94831, "BSTAR": 0.0014112965, "MEAN_MOTION_DOT": 2.299e-05, "MEAN_MOTION_DDOT": 0}, "tle": {"line1": "1 31032U 99025BEA 25335.99632562  .00002299  00000+0  14113-2 0  9997", "line2": "2 31032  99.4015 344.4881 0138619 225.3673 163.2841 14.02131489948310"}}, "geometry": {"type": "Point", "coordinates": [-52.072878823595374, 74.90444080128296]}}, {"type": "Feature", "properties": {"norad_id": 31033, "name": "FENGYUN 1C DEB", "group": "fengyun-1c-debris", "lat": -6.279914467576363, "lon": -43.123143585611544, "alt_km": 893.1135348810058, "timestamp": "2025-12-03T06:58:43.518074+00:00", "meta": {"OBJECT_NAME": "FENGYUN 1C DEB", "OBJECT_ID": "1999-025BEB", "EPOCH": "2025-12-02T16:40:35.560992", "MEAN_MOTION": 14.27435794, "ECCENTRICITY": 0.0153769, "INCLINATION": 98.4374, "RA_OF_ASC_NODE": 315.3655, "ARG_OF_PERICENTER": 139.8309, "MEAN_ANOMALY": 34.404, "EPHEMERIS_TYPE": 0, "CLASSIFICATION_TYPE": "U", "NORAD_CAT_ID": 31033, "ELEMENT_SET_NO": 999, "REV_AT_EPOCH": 97202, "BSTAR": 0.00021497, "MEAN_MOTION_DOT": 5.55e-06, "MEAN_MOTION_DDOT": 0}, "tle": {"line1": "1 31033U 99025BEB 25336.69485603  .00000555  00000+0  21497-3 0  9995", "line2": "2 31033  98.4374 315.3655 0153769 139.8309  34.4040 14.27435794972020"}}, "geometry": {"type": "Point", "coordinates": [-43.123143585611544, -6.279914467576363]}}, {"type": "Feature", "properties": {"norad_id": 31036, "name": "FENGYUN 1C DEB", "group": "fengyun-1c-debris", "lat": 30.790777915319904, "lon": -91.41496982673485, "alt_km": 806.2840353318761, "timestamp": "2025-12-03T06:58:43.518085+00:00", "meta": {"OBJECT_NAME": "FENGYUN 1C DEB", "OBJECT_ID": "1999-025BEE", "EPOCH": "2025-12-02T13:46:11.366688", "MEAN_MOTION": 14.49040377, "ECCENTRICITY": 0.01376477, "INCLINATION": 98.9155, "RA_OF_ASC_NODE": 82.4603, "ARG_OF_PERICENTER": 295.348, "MEAN_ANOMALY": 75.9553, "EPHEMERIS_TYPE": 0, "CLASSIFICATION_TYPE": "U", "NORAD_CAT_ID": 31036, "ELEMENT_SET_NO": 999, "REV_AT_EPOCH": 57160, "BSTAR": 0.00026923206, "MEAN_MOTION_DOT": 1.094e-05, "MEAN_MOTION_DDOT": 0}, "tle": {"line1": "1 31036U 99025BEE 25336.57374267  .00001094  00000+0  26923-3 0  9996", "line2": "2 31036  98.9155  82.4603 0137647 295.3480  75.9553 14.49040377571606"}}, "geometry": {"type": "Point", "coordinates": [-91.41496982673485, 30.790777915319904]}}, {"type": "Feature", "properties": {"norad_id": 31038, "name": "FENGYUN 1C DEB", "group": "fengyun-1c-debris", "lat": 58.327601263371406, "lon": 45.80982218181622, "alt_km": 790.9778586236171, "timestamp": "2025-12-03T06:58:43.518095+00:00", "meta": {"OBJECT_NAME": "FENGYUN 1C DEB", "OBJECT_ID": "1999-025BEG", "EPOCH": "2025-12-02T04:07:32.187648", "MEAN_MOTION": 14.4574661, "ECCENTRICITY": 0.00840344, "INCLINATION": 99.0146, "RA_OF_ASC_NODE": 59.5324, "ARG_OF_PERICENTER": 260.1378, "MEAN_ANOMALY": 99.0316, "EPHEMERIS_TYPE": 0, "CLASSIFICATION_TYPE": "U", "NORAD_CAT_ID": 31038, "ELEMENT_SET_NO": 999, "REV_AT_EPOCH": 98082, "BSTAR": 0.00073536601, "MEAN_MOTION_DOT": 2.669e-05, "MEAN_MOTION_DDOT": 0}, "tle": {"line1": "1 31038U 99025BEG 25336.17190032  .00002669  00000+0  73537-3 0  9992", "line2": "2 31038  99.0146  59.5324 0084034 260.1378  99.0316 14.45746610980823"}}, "geometry": {"type": "Point", "coordinates": [45.80982218181622, 58.327601263371406]}}]}